EXCITE                  
1 43819U 18099BP  26068.69809098  .00002813  00000+0  19631-3 0  9999
2 43819  97.4107 111.3606 0017626 337.4818  22.5634 15.06036758396774
STARLINK-3278           
1 50830U 22001AD  26068.58404642 -.00000386  00000+0 -61621-5 0  9995
2 50830  53.2180 179.5990 0001409  80.1291 279.9861 15.08837852230253
